[{"OBJECT_NAME":"STARLINK-5188","OBJECT_ID":"2022-136AX","EPOCH":"2026-03-09T22:22:25.743360","MEAN_MOTION":15.08841111,"ECCENTRICITY":0.00012242,"INCLINATION":53.2198,"RA_OF_ASC_NODE":332.8206,"ARG_OF_PERICENTER":79.069,"MEAN_ANOMALY":281.044,"EPHEMERIS_TYPE":0,"CLASSIFICATION_TYPE":"U","NORAD_CAT_ID":54096,"ELEMENT_SET_NO":999,"REV_AT_EPOCH":18702,"BSTAR":-0.00011529508,"MEAN_MOTION_DOT":-2.122e-5,"MEAN_MOTION_DDOT":0},{"OBJECT_NAME":"HINCUBE","OBJECT_ID":"2013-066AF","EPOCH":"2026-03-09T20:37:05.272320","MEAN_MOTION":15.06793635,"ECCENTRICITY":0.00336438,"INCLINATION":97.7872,"RA_OF_ASC_NODE":36.0584,"ARG_OF_PERICENTER":185.5277,"MEAN_ANOMALY":174.5583,"EPHEMERIS_TYPE":0,"CLASSIFICATION_TYPE":"U","NORAD_CAT_ID":39445,"ELEMENT_SET_NO":999,"REV_AT_EPOCH":66456,"BSTAR":0.00067193541,"MEAN_MOTION_DOT":0.00010075,"MEAN_MOTION_DDOT":0}]
